NORAD_CAT_ID,OBJECT_NAME,OBJECT_TYPE,EPOCH,MEAN_MOTION,ECCENTRICITY,INCLINATION,RA_OF_ASC_NODE,ARG_OF_PERICENTER,MEAN_ANOMALY,BSTAR,MEAN_MOTION_DOT,MEAN_MOTION_DDOT,TLE_LINE0,TLE_LINE1,TLE_LINE2,SEMIMAJOR_AXIS,PERIOD,APOGEE,PERIGEE,DECAYED
56476.0,STARLINK-5545,PAYLOAD,2024-05-06 02:58:40,14.98331125,0.0003105,70.0006,20.3087,265.764,94.3164,0.00023991,2.771e-05,0.0,0 STARLINK-5545,1 56476U 23064AE  24127.12407702  .00002771  00000-0  23991-3 0  9996,2 56476  70.0006  20.3087 0003105 265.7640  94.3164 14.98331125 55354,6950.189,96.107,574.212,569.896,0.0
56476.0,STARLINK-5545,PAYLOAD,2024-05-06 20:36:08,14.98342986,0.0003052,70.0007,18.4571,265.7945,94.2865,0.00015641,1.774e-05,0.0,0 STARLINK-5545,1 56476U 23064AE  24127.85842896  .00001774  00000-0  15641-3 0  9998,2 56476  70.0007  18.4571 0003052 265.7945  94.2865 14.98342986 55466,6950.153,96.106,574.139,569.897,0.0
56476.0,STARLINK-5545,PAYLOAD,2024-05-06 22:12:16,14.98343528,0.0003049,70.0007,18.2887,265.7939,94.2872,0.00015935,1.809e-05,0.0,0 STARLINK-5545,1 56476U 23064AE  24127.92518801  .00001809  00000-0  15935-3 0  9997,2 56476  70.0007  18.2887 0003049 265.7939  94.2872 14.98343528 55116,6950.151,96.106,574.135,569.897,0.0
56476.0,STARLINK-5545,PAYLOAD,2024-05-07 03:00:39,14.98349962,0.0002978,70.0008,17.7842,264.7035,95.3784,0.00020951,2.409e-05,0.0,0 STARLINK-5545,1 56476U 23064AE  24128.12546034  .00002409  00000-0  20951-3 0  9990,2 56476  70.0008  17.7842 0002978 264.7035  95.3784 14.98349962 55503,6950.131,96.106,574.066,569.926,0.0
56476.0,STARLINK-5545,PAYLOAD,2024-05-07 09:25:13,14.98334768,0.0002768,70.0007,17.1111,266.9144,93.1698,2.2184e-05,1.72e-06,0.0,0 STARLINK-5545,1 56476U 23064AE  24128.39251372  .00000172  00000-0  22184-4 0  9993,2 56476  70.0007  17.1111 0002768 266.9144  93.1698 14.98334768 55549,6950.178,96.107,573.967,570.119,0.0
56476.0,STARLINK-5545,PAYLOAD,2024-05-07 22:14:18,14.98330039,0.0002662,70.0015,15.7662,254.7745,105.312,-6.8514e-05,-9.1e-06,0.0,0 STARLINK-5545,1 56476U 23064AE  24128.92659735 -.00000910  00000-0 -68514-4 0  9996,2 56476  70.0015  15.7662 0002662 254.7745 105.3120 14.98330039 55260,6950.193,96.107,573.908,570.208,0.0
56476.0,STARLINK-5545,PAYLOAD,2024-05-08 03:02:42,14.98328461,0.0002739,70.001,15.2604,261.5781,98.5067,-0.00011188,-1.428e-05,0.0,0 STARLINK-5545,1 56476U 23064AE  24129.12687942 -.00001428  00000-0 -11188-3 0  9999,2 56476  70.0010  15.2604 0002739 261.5781  98.5067 14.98328461 55659,6950.198,96.107,573.966,570.159,0.0
56476.0,STARLINK-5545,PAYLOAD,2024-05-08 09:27:14,14.98333833,0.000287,70.0009,14.5868,265.4828,94.6003,-0.0001036,-1.329e-05,0.0,0 STARLINK-5545,1 56476U 23064AE  24129.39391542 -.00001329  00000-0 -10360-3 0  9997,2 56476  70.0009  14.5868 0002870 265.4828  94.6003 14.98333833 55333,6950.181,96.107,574.041,570.051,0.0
56476.0,STARLINK-5545,PAYLOAD,2024-05-08 20:40:09,14.98343081,0.0002814,70.001,13.4087,262.2465,97.8375,-7.4682e-05,-9.84e-06,0.0,0 STARLINK-5545,1 56476U 23064AE  24129.86122625 -.00000984  00000-0 -74682-4 0  9997,2 56476  70.0010  13.4087 0002814 262.2465  97.8375 14.98343081 55766,6950.152,96.106,573.973,570.062,0.0
56476.0,STARLINK-5545,PAYLOAD,2024-05-08 22:16:18,14.9834103,0.0002837,70.0009,13.2398,266.5001,93.5833,-8.8895e-05,-1.154e-05,0.0,0 STARLINK-5545,1 56476U 23064AE  24129.92798767 -.00001154  00000-0 -88895-4 0  9991,2 56476  70.0009  13.2398 0002837 266.5001  93.5833 14.98341030 55411,6950.159,96.106,573.996,570.052,0.0
56476.0,STARLINK-5545,PAYLOAD,2024-05-09 09:29:14,14.98343252,0.0003024,70.0004,12.0608,269.8543,90.2269,-0.00014354,-1.806e-05,0.0,0 STARLINK-5545,1 56476U 23064AE  24130.39530447 -.00001806  00000-0 -14354-3 0  9995,2 56476  70.0004  12.0608 0003024 269.8543  90.2269 14.98343252 55485,6950.152,96.106,574.119,569.915,0.0
56476.0,STARLINK-5545,PAYLOAD,2024-05-09 20:42:11,14.98321648,0.0003026,70.0004,10.8828,272.606,87.4753,6.8191e-05,7.21e-06,0.0,0 STARLINK-5545,1 56476U 23064AE  24130.86263466  .00000721  00000-0  68191-4 0  9993,2 56476  70.0004  10.8828 0003026 272.6060  87.4753 14.98321648 55912,6950.219,96.108,574.187,569.981,0.0
56476.0,STARLINK-5545,PAYLOAD,2024-05-09 22:18:19,14.98323702,0.000307,70.0003,10.7144,272.6954,87.3854,3.641e-05,3.41e-06,0.0,0 STARLINK-5545,1 56476U 23064AE  24130.92939447  .00000341  00000-0  36410-4 0  9996,2 56476  70.0003  10.7144 0003070 272.6954  87.3854 14.98323702 55567,6950.212,96.107,574.211,569.944,0.0
56476.0,STARLINK-5545,PAYLOAD,2024-05-10 01:30:35,14.98328475,0.0003029,70.0005,10.3779,272.8113,87.2699,8.8491e-05,9.63e-06,0.0,0 STARLINK-5545,1 56476U 23064AE  24131.06291025  .00000963  00000-0  88491-4 0  9991,2 56476  70.0005  10.3779 0003029 272.8113  87.2699 14.98328475 55942,6950.198,96.107,574.168,569.957,0.0
56476.0,STARLINK-5545,PAYLOAD,2024-05-10 09:31:15,14.98329563,0.0003024,70.0005,9.5366,270.4837,89.5976,4.8166e-05,4.82e-06,0.0,0 STARLINK-5545,1 56476U 23064AE  24131.39671101  .00000482  00000-0  48166-4 0  9995,2 56476  70.0005   9.5366 0003024 270.4837  89.5976 14.98329563 55634,6950.194,96.107,574.161,569.958,0.0
56476.0,STARLINK-5545,PAYLOAD,2024-05-10 22:20:20,14.98336132,0.0003092,70.0,8.1885,270.5369,89.5436,2.1152e-05,1.59e-06,0.0,0 STARLINK-5545,1 56476U 23064AE  24131.93078723  .00000159  00000-0  21152-4 0  9993,2 56476  70.0000   8.1885 0003092 270.5369  89.5436 14.98336132 55716,6950.174,96.107,574.188,569.89,0.0
56476.0,STARLINK-5545,PAYLOAD,2024-05-11 01:32:35,14.98351968,0.0002997,70.0009,7.8544,260.7877,99.2943,0.0002077,2.387e-05,0.0,0 STARLINK-5545,1 56476U 23064AE  24132.06429466  .00002387  00000-0  20770-3 0  9991,2 56476  70.0009   7.8544 0002997 260.7877  99.2943 14.98351968 56098,6950.125,96.106,574.073,569.907,0.0
56476.0,STARLINK-5545,PAYLOAD,2024-05-11 19:10:05,14.98305747,0.0002449,70.0006,6.0014,256.3278,103.7609,-0.00027225,-3.338e-05,0.0,0 STARLINK-5545,1 56476U 23064AE  24132.79867436 -.00003338  00000-0 -27225-3 0  9995,2 56476  70.0006   6.0014 0002449 256.3278 103.7609 14.98305747 56203,6950.268,96.109,573.835,570.431,0.0
56476.0,STARLINK-5545,PAYLOAD,2024-05-11 22:22:21,14.9830665,0.0002593,70.0004,5.6643,264.9232,95.1631,-0.00031734,-3.875e-05,0.0,0 STARLINK-5545,1 56476U 23064AE  24132.93219671 -.00003875  00000-0 -31734-3 0  9999,2 56476  70.0004   5.6643 0002593 264.9232  95.1631 14.98306650 55863,6950.265,96.108,573.932,570.328,0.0
56476.0,STARLINK-5545,PAYLOAD,2024-05-12 01:34:47,14.98171325,0.0003527,70.0006,5.329,264.4242,95.6515,-0.0018348,-0.00021829,0.0,0 STARLINK-5545,1 56476U 23064AE  24133.06583298 -.00021829  00000-0 -18348-2 0  9997,2 56476  70.0006   5.3290 0003527 264.4242  95.6515 14.98171325 56242,6950.684,96.117,575.0,570.097,0.0
56476.0,STARLINK-5545,PAYLOAD,2024-05-12 19:12:08,14.98307157,0.0002848,70.0017,3.4776,257.5625,102.5215,-0.00013009,-1.644e-05,0.0,0 STARLINK-5545,1 56476U 23064AE  24133.80010322 -.00001644  00000-0 -13009-3 0  9995,2 56476  70.0017   3.4776 0002848 257.5625 102.5215 14.98307157 56356,6950.264,96.108,574.108,570.149,0.0
56476.0,STARLINK-5545,PAYLOAD,2024-05-12 22:24:24,14.98353288,0.0002099,70.0012,3.1403,250.0627,110.0306,-0.00085641,-0.00010302,0.0,0 STARLINK-5545,1 56476U 23064AE  24133.93361210 -.00010302  00000-0 -85641-3 0  9996,2 56476  70.0012   3.1403 0002099 250.0627 110.0306 14.98353288 56017,6950.121,96.106,573.445,570.527,0.0
56476.0,STARLINK-5545,PAYLOAD,2024-05-13 08:01:12,14.9833066,0.0003123,70.0009,2.1291,264.8903,95.1899,-0.00013007,-1.645e-05,0.0,0 STARLINK-5545,1 56476U 23064AE  24134.33417340 -.00001645  00000-0 -13007-3 0  9994,2 56476  70.0009   2.1291 0003123 264.8903  95.1899 14.98330660 56431,6950.191,96.107,574.226,569.885,0.0
56476.0,STARLINK-5545,PAYLOAD,2024-05-14 00:02:31,14.98361713,0.0002958,69.9986,0.4443,268.143,91.939,-0.00019221,-2.388e-05,0.0,0 STARLINK-5545,1 56476U 23064AE  24135.00175042 -.00002388  00000-0 -19221-3 0  9998,2 56476  69.9986   0.4443 0002958 268.1430  91.9390 14.98361713 56533,6950.095,96.105,574.016,569.904,0.0
56476.0,STARLINK-5545,PAYLOAD,2024-05-14 14:27:44,14.9834323,0.0003604,69.9985,358.9288,270.8101,89.2645,0.00037835,4.426e-05,0.0,0 STARLINK-5545,1 56476U 23064AE  24135.60260306  .00004426  00000-0  37835-3 0  9996,2 56476  69.9985 358.9288 0003604 270.8101  89.2645 14.98343230 56261,6950.152,96.106,574.522,569.512,0.0
56476.0,STARLINK-5545,PAYLOAD,2024-05-14 20:52:16,14.9834958,0.0003291,70.0,358.258,262.6845,97.394,0.0004332,5.082e-05,0.0,0 STARLINK-5545,1 56476U 23064AE  24135.86963467  .00005082  00000-0  43320-3 0  9997,2 56476  70.0000 358.2580 0003291 262.6845  97.3940 14.98349580 56662,6950.132,96.106,574.285,569.71,0.0
56476.0,STARLINK-5545,PAYLOAD,2024-05-14 22:28:24,14.98351578,0.0003368,69.9994,358.0888,266.0116,94.0658,0.00044643,5.241e-05,0.0,0 STARLINK-5545,1 56476U 23064AE  24135.93639240  .00005241  00000-0  44643-3 0  9990,2 56476  69.9994 358.0888 0003368 266.0116  94.0658 14.98351578 56316,6950.126,96.106,574.332,569.65,0.0
56476.0,STARLINK-5545,PAYLOAD,2024-05-15 08:05:12,14.98344155,0.0003577,70.0008,357.0769,271.3683,88.7066,0.00043455,5.098e-05,0.0,0 STARLINK-5545,1 56476U 23064AE  24136.33695281  .00005098  00000-0  43455-3 0  9992,2 56476  70.0008 357.0769 0003577 271.3683  88.7066 14.98344155 56734,6950.149,96.106,574.5,569.528,0.0
56476.0,STARLINK-5545,PAYLOAD,2024-05-15 14:29:45,14.98343201,0.0003246,70.0,356.4062,265.3509,94.7279,-0.00012989,-1.643e-05,0.0,0 STARLINK-5545,1 56476U 23064AE  24136.60400325 -.00001643  00000-0 -12989-3 0  9997,2 56476  70.0000 356.4062 0003246 265.3509  94.7279 14.98343201 56417,6950.152,96.106,574.273,569.761,0.0
56476.0,STARLINK-5545,PAYLOAD,2024-05-15 22:30:25,14.98351655,0.0003186,70.0,355.5645,265.0921,94.9874,-7.4844e-05,-9.86e-06,0.0,0 STARLINK-5545,1 56476U 23064AE  24136.93779288 -.00000986  00000-0 -74844-4 0  9998,2 56476  70.0000 355.5645 0003186 265.0921  94.9874 14.98351655 56462,6950.126,96.106,574.205,569.777,0.0
